#aV2019 11 26  0  0  0.00000000     288 DD+AD WGS84 FIT  NGA
## 2081 172800.00000000   300.00000000 58813 0.0000000000000
+   32     1  2  3  4  5  6  7  8  9 10 11 12 13 14 15 16 17
+         18 19 20 21 22 23 24 25 26 27 28 29 30 31 32  0  0
+          0  0  0  0  0  0  0  0  0  0  0  0  0  0  0  0  0
+          0  0  0  0  0  0  0  0  0  0  0  0  0  0  0  0  0
+          0  0  0  0  0  0  0  0  0  0  0  0  0  0  0  0  0
++         2  2  2  2  2  2  2  2  2  2  2  2  2  2  2  2  2
++         2  2  2  2  2  2  2  2  2  2  2  2  2  2  2  0  0
++         0  0  0  0  0  0  0  0  0  0  0  0  0  0  0  0  0
++         0  0  0  0  0  0  0  0  0  0  0  0  0  0  0  0  0
++         0  0  0  0  0  0  0  0  0  0  0  0  0  0  0  0  0
%c cc cc ccc ccc cccc cccc cccc cccc ccccc ccccc ccccc ccccc
%c cc cc ccc ccc cccc cccc cccc cccc ccccc ccccc ccccc ccccc
%f  0.0000000  0.000000000  0.00000000000  0.000000000000000
%f  0.0000000  0.000000000  0.00000000000  0.000000000000000
%i    0    0    0    0      0      0      0      0         0
%i    0    0    0    0      0      0      0      0         0
/*      NGA, ST. LOUIS,MO.                                  
/*   EPHEMERIS COMPUTED FROM 2 DAYS OF DATA                 
/*   EPOCHA v5 SMOOTHER                                     
/*   G1762 IERS2010 SATAF SATAPC                            
*  2019 11 26 13 10  0.00000000
P  1    137.813028  15352.721197 -21837.866197   -210.057884                    
V  1 -26157.127735   7613.806377   5546.157174     -0.125272                    
P  2  19973.109880 -15002.700837   9466.585897   -354.485390                    
V  2  11361.933563  -1668.064591 -28632.269482     -0.075724                    
P  3  10382.217692  21142.915751 -12419.632234    -42.760195                    
V  3 -13010.464392  -8940.685842 -26135.786890     -0.061657                    
P  4   6111.784829  20573.728257  15644.333211    -13.315122                    
V  4  -6782.386587  18749.868204 -22044.458434     -0.043792                    
P  5   8780.485172 -12674.774546  21479.341924     -3.930912                    
V  5  21152.337294  17807.532556   2040.787291     -0.004613                    
P  6  25700.584560  -5771.078333  -3477.954595   -135.579122                    
V  6  -3571.382436   3484.767731 -31708.981135     -0.116099                    
P  7  17414.882728   8501.819455  18649.667114   -157.050004                    
V  7 -21595.392317   7866.486555  16364.457373     -0.081450                    
P  8  -5604.866991  25832.650310    479.411738    -14.684228                    
V  8  -2549.177604  -1101.908748  32098.992208     -0.013226                    
P  9   8939.905395  17963.778724  17341.970258    -93.144864                    
V  9  -6245.489901  21340.239606 -18834.129627     -0.095844                    
P 10 -22086.179674  -8697.750304 -12080.386143   -149.440152                    
V 10  -9948.996424 -11885.270999  26380.830061     -0.145847                    
P 11   -688.289516  20043.761767 -18061.529521   -436.882798                    
V 11 -17277.786672  13783.633805  16104.563918      0.110941                    
P 12  -4808.879157 -20740.970723 -16205.177843    179.518356                    
V 12  14824.562933  13582.791188 -21915.229644     -0.039597                    
P 13  13029.148733 -21910.284669   7198.066947    -30.457231                    
V 13   -718.125948   9628.743968  30169.247395      0.023778                    
P 14 -16111.223853  11680.773961 -17174.391971    -48.302063                    
V 14   4713.501520 -22104.310112 -19273.501202      0.021760                    
P 15   2529.190703 -26221.605182   -696.699082   -269.933340                    
V 15   4234.524044    -60.945950  31237.775219      0.027015                    
P 16 -11056.350845   9676.969664  21934.758061    -96.976830                    
V 16 -19262.516315 -20678.136812   -154.067459     -0.037935                    
P 17  14913.938474   -178.683525 -21544.821921    169.970201                    
V 17  -7200.552415  27394.450763  -5183.896637      0.069056                    
P 18  -8565.948229  17312.806422 -18694.029161    102.725332                    
V 18 -21809.958023   6656.028340  16702.866600      0.025099                    
P 19  16394.964082  -7873.946729 -19655.863100   -234.515609                    
V 19  -6692.953543  23341.344358 -15144.007348      0.051943                    
P 20 -22554.735442 -14117.366781  -1874.842100    527.543009                    
V 20    182.153497  -4193.603681  30856.968196      0.000812                    
P 21 -19752.352305  -5704.923801  17491.659881    -80.114919                    
V 21  18739.791369  -9220.327943  19235.371287      0.058761                    
P 22   3861.338922  19502.565208 -17441.589362   -774.125882                    
V 22 -19224.686718 -12162.496100 -17535.316486     -0.023381                    
P 23   2987.836095  24173.390645  10458.661110   -153.233911                    
V 23  -5603.928523  12090.408023 -27630.626503      0.022995                    
P 24   1538.823087 -16782.600194 -20631.568964     -5.420260                    
V 24  24667.278376  -8187.587798   8930.909632     -0.004908                    
P 25 -17121.264704 -20005.808040  -4646.855913    -17.374177                    
V 25   5666.093932   2077.097644 -31018.983183     -0.001394                    
P 26 -18241.695869   2473.230485  19199.561795     92.664659                    
V 26 -17623.159550 -16915.039795 -14349.132740      0.082915                    
P 27 -12216.685527  20458.259772  11281.350790   -131.888053                    
V 27    948.838509 -14718.827227  27744.088865     -0.118035                    
P 28  20648.773777   9992.607042 -12673.305549    753.407588                    
V 28  10002.933957  14019.351754  26236.571853     -0.016369                    
P 29  -6278.731487 -19208.327127  17193.002896     34.131302                    
V 29   7339.197859 -20613.461199 -20335.408956     -0.098659                    
P 30  24588.197381    981.672032  10276.576537    -92.428572                    
V 30 -11735.163564   6248.164388  27370.678535     -0.084804                    
P 31 -25947.835195   6678.167898  -1095.257273     -5.780737                    
V 31    609.673944  -2747.264619 -31378.323497     -0.025379                    
P 32 -15622.338585    976.228400 -21382.932623    137.093323                    
V 32   5126.381692 -26845.913943  -5085.657147      0.118566                    
EOF
